[
    {
        "Altitude(m)": 617719.7234756117,
        "Argument of Periapsis(deg)": 0.0,
        "Eccentricity": 0.0,
        "Inclination(deg)": 60.0,
        "Latitude(deg)": -41.10251160173664,
        "Longitude(deg)": 65.09467986304357,
        "Mean Anomaly(deg)": -130.9091,
        "RAAN(deg)": 315.0,
        "Satellite Name": "Test1 1400",
        "Satellite Number": 1400,
        "Semi-Major Axis(m)": 6980739.136638005,
        "Time(s)": 0
    },
    {
        "Altitude(m)": 617911.2591588548,
        "Argument of Periapsis(deg)": 0.00010418945913296404,
        "Eccentricity": 0.0,
        "Inclination(deg)": 60.0,
        "Latitude(deg)": -41.565703261386666,
        "Longitude(deg)": 65.59908595371296,
        "Mean Anomaly(deg)": -130.28899385453815,
        "RAAN(deg)": 314.99957995086027,
        "Satellite Name": "Test1 1400",
        "Satellite Number": 1400,
        "Semi-Major Axis(m)": 6980739.136638005,
        "Time(s)": 10
    }
]